{
    "links": {
        "self": "http://www.neowsapp.com/rest/v1/neo/3689270?api_key=iIulBulltgU6a56xZRHN4H3l9WmuAYTsLGpBGhQ2"
    },
    "id": "3689270",
    "neo_reference_id": "3689270",
    "name": "(2014 SQ1)",
    "designation": "2014 SQ1",
    "nasa_jpl_url": "http://ssd.jpl.nasa.gov/sbdb.cgi?sstr=3689270",
    "absolute_magnitude_h": 23.7,
    "estimated_diameter": {
        "kilometers": {
            "estimated_diameter_min": 0.0483676488,
            "estimated_diameter_max": 0.1081533507
        },
        "meters": {
            "estimated_diameter_min": 48.3676488219,
            "estimated_diameter_max": 108.1533506775
        },
        "miles": {
            "estimated_diameter_min": 0.0300542543,
            "estimated_diameter_max": 0.0672033557
        },
        "feet": {
            "estimated_diameter_min": 158.6865169607,
            "estimated_diameter_max": 354.8338390368
        }
    },
    "is_potentially_hazardous_asteroid": false,
    "close_approach_data": [
        {
            "close_approach_date": "1909-05-08",
            "close_approach_date_full": "1909-May-08 21:32",
            "epoch_date_close_approach": -1913941680000,
            "relative_velocity": {
                "kilometers_per_second": "3.1981235808",
                "kilometers_per_hour": "11513.2448907205",
                "miles_per_hour": "7153.8826377924"
            },
            "miss_distance": {
                "astronomical": "1.9346536863",
                "lunar": "752.5802839707",
                "kilometers": "289420070.658128181",
                "miles": "179837292.7408876578"
            },
            "orbiting_body": "Juptr"
        },
        {
            "close_approach_date": "1926-07-27",
            "close_approach_date_full": "1926-Jul-27 02:08",
            "epoch_date_close_approach": -1370641920000,
            "relative_velocity": {
                "kilometers_per_second": "9.8535759655",
                "kilometers_per_hour": "35472.8734757943",
                "miles_per_hour": "22041.4640772234"
            },
            "miss_distance": {
                "astronomical": "0.1616629754",
                "lunar": "62.8868974306",
                "kilometers": "24184436.777702398",
                "miles": "15027512.1786651724"
            },
            "orbiting_body": "Earth"
        },
        {
            "close_approach_date": "1976-06-24",
            "close_approach_date_full": "1976-Jun-24 14:09",
            "epoch_date_close_approach": 204473340000,
            "relative_velocity": {
                "kilometers_per_second": "21.4736733896",
                "kilometers_per_hour": "77305.2242023922",
                "miles_per_hour": "48034.460005092"
            },
            "miss_distance": {
                "astronomical": "0.4800471472",
                "lunar": "186.7383402608",
                "kilometers": "71814030.720696464",
                "miles": "44623169.4859766432"
            },
            "orbiting_body": "Earth"
        },
        {
            "close_approach_date": "2014-09-15",
            "close_approach_date_full": "2014-Sep-15 22:35",
            "epoch_date_close_approach": 1410820500000,
            "relative_velocity": {
                "kilometers_per_second": "9.5261251867",
                "kilometers_per_hour": "34294.0506722421",
                "miles_per_hour": "21308.9894302051"
            },
            "miss_distance": {
                "astronomical": "0.0787655558",
                "lunar": "30.6398012062",
                "kilometers": "11783159.377046146",
                "miles": "7321715.7244269748"
            },
            "orbiting_body": "Earth"
        }
    ],
    "orbital_data": {
        "orbit_id": "18",
        "orbit_determination_date": "2017-04-06 08:38:39",
        "first_observation_date": "2014-09-19",
        "last_observation_date": "2014-10-26",
        "data_arc_in_days": 37,
        "observations_used": 77,
        "orbit_uncertainty": "6",
        "minimum_orbit_intersection": ".0456396",
        "jupiter_tisserand_invariant": "3.247",
        "epoch_osculation": "2459000.5",
        "eccentricity": ".5723971995968283",
        "semi_major_axis": "2.447755035881131",
        "inclination": "4.795264417383485",
        "ascending_node_longitude": "351.8143910454199",
        "orbital_period": "1398.783033712096",
        "perihelion_distance": "1.046666908043738",
        "perihelion_argument": "338.6844673451627",
        "aphelion_distance": "3.848843163718525",
        "perihelion_time": "2459696.885626286194",
        "mean_anomaly": "180.7736157638942",
        "mean_motion": ".2573665760333327",
        "equinox": "J2000",
        "orbit_class": {
            "orbit_class_type": "AMO",
            "orbit_class_description": "Near-Earth asteroid orbits similar to that of 1221 Amor",
            "orbit_class_range": "1.017 AU < q (perihelion) < 1.3 AU"
        }
    },
    "is_sentry_object": false
}